start=new Date('2023-02-04T00:00:00.000Z').valueOf();
sats=[{"GP_ID":"224308474","SITE":"AFETR","MEAN_ELEMENT_THEORY":"SGP4","EPOCH":"2023-02-03T09:20:58.250112","COUNTRY_CODE":"US","MEAN_MOTION":"15.06391443","MEAN_MOTION_DDOT":"0.0000000000000","CENTER_NAME":"EARTH","PERIAPSIS":"546.390","ECCENTRICITY":"0.00012270","NORAD_CAT_ID":"45541","TIME_SYSTEM":"UTC","REV_AT_EPOCH":"15472","ARG_OF_PERICENTER":"90.1385","LAUNCH_DATE":"2020-04-22","OBJECT_ID":"2020-025L","OBJECT_TYPE":"PAYLOAD","BSTAR":"-0.00004812900000","INCLINATION":"53.0532","FILE":"3770323","ELEMENT_SET_NO":"999","SEMIMAJOR_AXIS":"6925.375","TLE_LINE2":"2 45541  53.0532 140.7432 0001227  90.1385 269.9744 15.06391443154724","MEAN_MOTION_DOT":"-0.00000998","RCS_SIZE":"LARGE","DECAY_DATE":null,"CLASSIFICATION_TYPE":"U","MEAN_ANOMALY":"269.9744","TLE_LINE1":"1 45541U 20025L   23034.38956308 -.00000998  00000-0 -48129-4 0  9998","EPHEMERIS_TYPE":"0","REF_FRAME":"TEME","OBJECT_NAME":"STARLINK-1369","APOAPSIS":"548.090","PERIOD":"95.593","RA_OF_ASC_NODE":"140.7432"},{"ECCENTRICITY":"0.00008290","TIME_SYSTEM":"UTC","NORAD_CAT_ID":"45542","LAUNCH_DATE":"2020-04-22","ARG_OF_PERICENTER":"81.1109","REV_AT_EPOCH":"15477","INCLINATION":"53.0555","BSTAR":"0.00003026800000","OBJECT_ID":"2020-025M","OBJECT_TYPE":"PAYLOAD","EPOCH":"2023-02-03T16:30:52.920000","GP_ID":"224343979","MEAN_ELEMENT_THEORY":"SGP4","SITE":"AFETR","COUNTRY_CODE":"US","MEAN_MOTION_DDOT":"0.0000000000000","MEAN_MOTION":"15.06401577","PERIAPSIS":"546.635","CENTER_NAME":"EARTH","REF_FRAME":"TEME","EPHEMERIS_TYPE":"0","TLE_LINE1":"1 45542U 20025M   23034.68811250  .00000170  00000-0  30268-4 0  9993","OBJECT_NAME":"STARLINK-1371","APOAPSIS":"547.783","PERIOD":"95.592","RA_OF_ASC_NODE":"139.4016","ELEMENT_SET_NO":"999","FILE":"3770748","RCS_SIZE":"LARGE","MEAN_MOTION_DOT":"0.00000170","TLE_LINE2":"2 45542  53.0555 139.4016 0000829  81.1109 278.9974 15.06401577154774","SEMIMAJOR_AXIS":"6925.344","DECAY_DATE":null,"MEAN_ANOMALY":"278.9974","CLASSIFICATION_TYPE":"U"},{"CLASSIFICATION_TYPE":"U","MEAN_ANOMALY":"270.9484","DECAY_DATE":null,"SEMIMAJOR_AXIS":"6925.366","TLE_LINE2":"2 45543  53.0541 139.5239 0001457  89.1672 270.9484 15.06394464153862","MEAN_MOTION_DOT":"-0.00000711","RCS_SIZE":"LARGE","FILE":"3770748","ELEMENT_SET_NO":"999","RA_OF_ASC_NODE":"139.5239","PERIOD":"95.592","APOAPSIS":"548.240","OBJECT_NAME":"STARLINK-1372","TLE_LINE1":"1 45543U 20025N   23034.65863525 -.00000711  00000-0 -28873-4 0  9995","EPHEMERIS_TYPE":"0","REF_FRAME":"TEME","CENTER_NAME":"EARTH","PERIAPSIS":"546.221","MEAN_MOTION":"15.06394464","MEAN_MOTION_DDOT":"0.0000000000000","COUNTRY_CODE":"US","SITE":"AFETR","GP_ID":"224344230","MEAN_ELEMENT_THEORY":"SGP4","EPOCH":"2023-02-03T15:48:26.085600","OBJECT_TYPE":"PAYLOAD","OBJECT_ID":"2020-025N","BSTAR":"-0.00002887300000","INCLINATION":"53.0541","REV_AT_EPOCH":"15386","LAUNCH_DATE":"2020-04-22","ARG_OF_PERICENTER":"89.1672","NORAD_CAT_ID":"45543","TIME_SYSTEM":"UTC","ECCENTRICITY":"0.00014570"},{"MEAN_ELEMENT_THEORY":"SGP4","GP_ID":"224309227","SITE":"AFETR","EPOCH":"2023-02-03T09:52:48.976608","COUNTRY_CODE":"US","MEAN_MOTION_DDOT":"0.0000000000000","MEAN_MOTION":"15.06391227","CENTER_NAME":"EARTH","PERIAPSIS":"546.342","ECCENTRICITY":"0.00012970","TIME_SYSTEM":"UTC","NORAD_CAT_ID":"45544","LAUNCH_DATE":"2020-04-22","ARG_OF_PERICENTER":"86.1640","REV_AT_EPOCH":"15473","BSTAR":"0.00000622370000","INCLINATION":"53.0539","OBJECT_TYPE":"PAYLOAD","OBJECT_ID":"2020-025P","FILE":"3770323","ELEMENT_SET_NO":"999","MEAN_MOTION_DOT":"-0.00000189","RCS_SIZE":"LARGE","SEMIMAJOR_AXIS":"6925.375","TLE_LINE2":"2 45544  53.0539 140.6425 0001297  86.1640 273.9497 15.06391227154732","DECAY_DATE":null,"MEAN_ANOMALY":"273.9497","CLASSIFICATION_TYPE":"U","REF_FRAME":"TEME","TLE_LINE1":"1 45544U 20025P   23034.41167797 -.00000189  00000-0  62237-5 0  9999","EPHEMERIS_TYPE":"0","OBJECT_NAME":"STARLINK-1373","APOAPSIS":"548.139","PERIOD":"95.593","RA_OF_ASC_NODE":"140.6425"},{"MEAN_MOTION_DDOT":"0.0000000000000","MEAN_MOTION":"15.06394212","CENTER_NAME":"EARTH","PERIAPSIS":"546.089","GP_ID":"224343231","SITE":"AFETR","MEAN_ELEMENT_THEORY":"SGP4","EPOCH":"2023-02-03T16:41:30.661728","COUNTRY_CODE":"US","LAUNCH_DATE":"2020-04-22","ARG_OF_PERICENTER":"76.3552","REV_AT_EPOCH":"15475","BSTAR":"0.00001387100000","INCLINATION":"53.0508","OBJECT_ID":"2020-025Q","OBJECT_TYPE":"PAYLOAD","ECCENTRICITY":"0.00016490","TIME_SYSTEM":"UTC","NORAD_CAT_ID":"45545","DECAY_DATE":null,"MEAN_ANOMALY":"283.7621","CLASSIFICATION_TYPE":"U","FILE":"3770748","ELEMENT_SET_NO":"999","MEAN_MOTION_DOT":"-0.00000075","RCS_SIZE":"LARGE","SEMIMAJOR_AXIS":"6925.366","TLE_LINE2":"2 45545  53.0508 139.3614 0001649  76.3552 283.7621 15.06394212154755","PERIOD":"95.593","RA_OF_ASC_NODE":"139.3614","REF_FRAME":"TEME","TLE_LINE1":"1 45545U 20025Q   23034.69549377 -.00000075  00000-0  13871-4 0  9991","EPHEMERIS_TYPE":"0","OBJECT_NAME":"STARLINK-1374","APOAPSIS":"548.373"},{"REF_FRAME":"TEME","TLE_LINE1":"1 45546U 20025R   23034.30846820  .00000895  00000-0  78991-4 0  9996","EPHEMERIS_TYPE":"0","OBJECT_NAME":"STARLINK-1375","APOAPSIS":"548.114","PERIOD":"95.593","RA_OF_ASC_NODE":"141.0944","FILE":"3770323","ELEMENT_SET_NO":"999","MEAN_MOTION_DOT":"0.00000895","RCS_SIZE":"LARGE","SEMIMAJOR_AXIS":"6925.381","TLE_LINE2":"2 45546  53.0542 141.0944 0001254  87.4964 272.6168 15.06389432154719","DECAY_DATE":null,"MEAN_ANOMALY":"272.6168","CLASSIFICATION_TYPE":"U","ECCENTRICITY":"0.00012540","TIME_SYSTEM":"UTC","NORAD_CAT_ID":"45546","LAUNCH_DATE":"2020-04-22","ARG_OF_PERICENTER":"87.4964","REV_AT_EPOCH":"15471","BSTAR":"0.00007899100000","INCLINATION":"53.0542","OBJECT_TYPE":"PAYLOAD","OBJECT_ID":"2020-025R","SITE":"AFETR","GP_ID":"224308226","MEAN_ELEMENT_THEORY":"SGP4","EPOCH":"2023-02-03T07:24:11.652480","COUNTRY_CODE":"US","MEAN_MOTION_DDOT":"0.0000000000000","MEAN_MOTION":"15.06389432","CENTER_NAME":"EARTH","PERIAPSIS":"546.378"},{"EPOCH":"2023-02-03T16:52:07.255200","GP_ID":"224344731","SITE":"AFETR","MEAN_ELEMENT_THEORY":"SGP4","COUNTRY_CODE":"US","MEAN_MOTION_DDOT":"0.0000000000000","MEAN_MOTION":"15.06392048","PERIAPSIS":"546.356","CENTER_NAME":"EARTH","ECCENTRICITY":"0.00012740","TIME_SYSTEM":"UTC","NORAD_CAT_ID":"45547","LAUNCH_DATE":"2020-04-22","ARG_OF_PERICENTER":"88.0535","REV_AT_EPOCH":"15478","INCLINATION":"53.0526","BSTAR":"-0.00002430500000","OBJECT_TYPE":"PAYLOAD","OBJECT_ID":"2020-025S","ELEMENT_SET_NO":"999","FILE":"3770748","RCS_SIZE":"LARGE","MEAN_MOTION_DOT":"-0.00000643","TLE_LINE2":"2 45547  53.0526 139.3343 0001274  88.0535 272.0600 15.06392048154787","SEMIMAJOR_AXIS":"6925.373","DECAY_DATE":null,"MEAN_ANOMALY":"272.0600","CLASSIFICATION_TYPE":"U","REF_FRAME":"TEME","EPHEMERIS_TYPE":"0","TLE_LINE1":"1 45547U 20025S   23034.70286175 -.00000643  00000-0 -24305-4 0  9995","OBJECT_NAME":"STARLINK-1377","APOAPSIS":"548.120","PERIOD":"95.593","RA_OF_ASC_NODE":"139.3343"},{"PERIAPSIS":"546.388","CENTER_NAME":"EARTH","MEAN_MOTION_DDOT":"0.0000000000000","MEAN_MOTION":"15.06394239","COUNTRY_CODE":"US","EPOCH":"2023-02-03T17:29:16.739808","SITE":"AFETR","GP_ID":"224344981","MEAN_ELEMENT_THEORY":"SGP4","INCLINATION":"53.0550","BSTAR":"0.00000619220000","OBJECT_ID":"2020-025T","OBJECT_TYPE":"PAYLOAD","ARG_OF_PERICENTER":"99.3487","LAUNCH_DATE":"2020-04-22","REV_AT_EPOCH":"15477","TIME_SYSTEM":"UTC","NORAD_CAT_ID":"45548","ECCENTRICITY":"0.00012180","MEAN_ANOMALY":"260.7640","CLASSIFICATION_TYPE":"U","DECAY_DATE":null,"RCS_SIZE":"LARGE","MEAN_MOTION_DOT":"-0.00000189","TLE_LINE2":"2 45548  53.0550 139.2089 0001218  99.3487 260.7640 15.06394239154771","SEMIMAJOR_AXIS":"6925.366","ELEMENT_SET_NO":"999","FILE":"3770748","RA_OF_ASC_NODE":"139.2089","PERIOD":"95.593","APOAPSIS":"548.075","OBJECT_NAME":"STARLINK-1378","REF_FRAME":"TEME","EPHEMERIS_TYPE":"0","TLE_LINE1":"1 45548U 20025T   23034.72866597 -.00000189  00000-0  61922-5 0  9991"},{"PERIAPSIS":"546.518","CENTER_NAME":"EARTH","MEAN_MOTION_DDOT":"0.0000000000000","MEAN_MOTION":"15.06393907","COUNTRY_CODE":"US","EPOCH":"2023-02-03T09:56:45.519072","MEAN_ELEMENT_THEORY":"SGP4","GP_ID":"224308475","SITE":"AFETR","INCLINATION":"53.0558","BSTAR":"0.00004423700000","OBJECT_TYPE":"PAYLOAD","OBJECT_ID":"2020-025V","ARG_OF_PERICENTER":"87.1394","LAUNCH_DATE":"2020-04-22","REV_AT_EPOCH":"15472","TIME_SYSTEM":"UTC","NORAD_CAT_ID":"45550","ECCENTRICITY":"0.00010310","MEAN_ANOMALY":"272.9713","CLASSIFICATION_TYPE":"U","DECAY_DATE":null,"RCS_SIZE":"LARGE","MEAN_MOTION_DOT":"0.00000378","TLE_LINE2":"2 45550  53.0558 140.6178 0001031  87.1394 272.9713 15.06393907154724","SEMIMAJOR_AXIS":"6925.367","ELEMENT_SET_NO":"999","FILE":"3770323","RA_OF_ASC_NODE":"140.6178","PERIOD":"95.593","OBJECT_NAME":"STARLINK-1390","APOAPSIS":"547.946","REF_FRAME":"TEME","EPHEMERIS_TYPE":"0","TLE_LINE1":"1 45550U 20025V   23034.41441573  .00000378  00000-0  44237-4 0  9991"},{"TLE_LINE1":"1 45551U 20025W   23034.28451597  .00002764  00000-0  20446-3 0  9990","EPHEMERIS_TYPE":"0","REF_FRAME":"TEME","OBJECT_NAME":"STARLINK-1294","APOAPSIS":"548.157","PERIOD":"95.593","RA_OF_ASC_NODE":"121.2185","FILE":"3770323","ELEMENT_SET_NO":"999","SEMIMAJOR_AXIS":"6925.382","TLE_LINE2":"2 45551  53.0540 121.2185 0001314 101.9286 258.1850 15.06388943154999","MEAN_MOTION_DOT":"0.00002764","RCS_SIZE":"LARGE","DECAY_DATE":null,"CLASSIFICATION_TYPE":"U","MEAN_ANOMALY":"258.1850","ECCENTRICITY":"0.00013140","NORAD_CAT_ID":"45551","TIME_SYSTEM":"UTC","REV_AT_EPOCH":"15499","LAUNCH_DATE":"2020-04-22","ARG_OF_PERICENTER":"101.9286","OBJECT_ID":"2020-025W","OBJECT_TYPE":"PAYLOAD","BSTAR":"0.00020446000000","INCLINATION":"53.0540","MEAN_ELEMENT_THEORY":"SGP4","GP_ID":"224308725","SITE":"AFETR","EPOCH":"2023-02-03T06:49:42.179808","COUNTRY_CODE":"US","MEAN_MOTION":"15.06388943","MEAN_MOTION_DDOT":"0.0000000000000","CENTER_NAME":"EARTH","PERIAPSIS":"546.337"}];
